{
    "links": {
        "self": "http://www.neowsapp.com/rest/v1/neo/3743745?api_key=iIulBulltgU6a56xZRHN4H3l9WmuAYTsLGpBGhQ2"
    },
    "id": "3743745",
    "neo_reference_id": "3743745",
    "name": "(2016 CP195)",
    "designation": "2016 CP195",
    "nasa_jpl_url": "http://ssd.jpl.nasa.gov/sbdb.cgi?sstr=3743745",
    "absolute_magnitude_h": 26.5,
    "estimated_diameter": {
        "kilometers": {
            "estimated_diameter_min": 0.0133215567,
            "estimated_diameter_max": 0.0297879063
        },
        "meters": {
            "estimated_diameter_min": 13.3215566698,
            "estimated_diameter_max": 29.7879062798
        },
        "miles": {
            "estimated_diameter_min": 0.008277629,
            "estimated_diameter_max": 0.0185093411
        },
        "feet": {
            "estimated_diameter_min": 43.7058959846,
            "estimated_diameter_max": 97.7293544391
        }
    },
    "is_potentially_hazardous_asteroid": false,
    "close_approach_data": [
        {
            "close_approach_date": "2007-07-31",
            "close_approach_date_full": "2007-Jul-31 12:55",
            "epoch_date_close_approach": 1185886500000,
            "relative_velocity": {
                "kilometers_per_second": "19.9739155401",
                "kilometers_per_hour": "71906.0959443197",
                "miles_per_hour": "44679.6516716246"
            },
            "miss_distance": {
                "astronomical": "0.4799822613",
                "lunar": "186.7130996457",
                "kilometers": "71804323.928263431",
                "miles": "44617137.9648441078"
            },
            "orbiting_body": "Earth"
        },
        {
            "close_approach_date": "2016-02-15",
            "close_approach_date_full": "2016-Feb-15 08:43",
            "epoch_date_close_approach": 1455525780000,
            "relative_velocity": {
                "kilometers_per_second": "13.7896464206",
                "kilometers_per_hour": "49642.7271142601",
                "miles_per_hour": "30846.0600783023"
            },
            "miss_distance": {
                "astronomical": "0.0334761207",
                "lunar": "13.0222109523",
                "kilometers": "5007956.352582909",
                "miles": "3111799.7814217842"
            },
            "orbiting_body": "Earth"
        },
        {
            "close_approach_date": "2016-08-08",
            "close_approach_date_full": "2016-Aug-08 01:27",
            "epoch_date_close_approach": 1470619620000,
            "relative_velocity": {
                "kilometers_per_second": "12.6286130652",
                "kilometers_per_hour": "45463.0070347556",
                "miles_per_hour": "28248.944565568"
            },
            "miss_distance": {
                "astronomical": "0.2431289401",
                "lunar": "94.5771576989",
                "kilometers": "36371571.574317587",
                "miles": "22600246.5889212206"
            },
            "orbiting_body": "Earth"
        },
        {
            "close_approach_date": "2021-07-30",
            "close_approach_date_full": "2021-Jul-30 03:10",
            "epoch_date_close_approach": 1627614600000,
            "relative_velocity": {
                "kilometers_per_second": "18.3061463441",
                "kilometers_per_hour": "65902.1268389321",
                "miles_per_hour": "40949.0187572242"
            },
            "miss_distance": {
                "astronomical": "0.415591694",
                "lunar": "161.665168966",
                "kilometers": "62171632.21209178",
                "miles": "38631660.882675364"
            },
            "orbiting_body": "Earth"
        }
    ],
    "orbital_data": {
        "orbit_id": "7",
        "orbit_determination_date": "2017-04-06 08:28:18",
        "first_observation_date": "2016-02-12",
        "last_observation_date": "2016-02-16",
        "data_arc_in_days": 4,
        "observations_used": 30,
        "orbit_uncertainty": "8",
        "minimum_orbit_intersection": ".0291967",
        "jupiter_tisserand_invariant": "5.280",
        "epoch_osculation": "2457431.5",
        "eccentricity": ".196207036823308",
        "semi_major_axis": "1.173759690011402",
        "inclination": "24.56944261714928",
        "ascending_node_longitude": "324.0081484463246",
        "orbital_period": "464.4802078199394",
        "perihelion_distance": ".9434597792916199",
        "perihelion_argument": "236.5915183959284",
        "aphelion_distance": "1.404059600731183",
        "perihelion_time": "2457483.583078467937",
        "mean_anomaly": "319.6324925523502",
        "mean_motion": ".7750599356852634",
        "equinox": "J2000",
        "orbit_class": {
            "orbit_class_type": "APO",
            "orbit_class_description": "Near-Earth asteroid orbits which cross the Earth’s orbit similar to that of 1862 Apollo",
            "orbit_class_range": "a (semi-major axis) > 1.0 AU; q (perihelion) < 1.017 AU"
        }
    },
    "is_sentry_object": false
}